GLOBALSTAR M084         
1 38040U 11080A   25070.82919872 -.00000073  00000+0  16955-3 0  9994
2 38040  52.0036 344.8673 0000603 104.2035 298.2556 12.62263315610377
GLOBALSTAR M080         
1 38041U 11080B   25070.87920156 -.00000081  00000+0  12554-3 0  9997
2 38041  52.0089 346.2894 0000869 109.8957 278.8775 12.62277819610501
GLOBALSTAR M082         
1 38042U 11080C   25070.88861728 -.00000058  00000+0  25553-3 0  9995
2 38042  52.0079 301.6964 0000774  47.9748 324.9444 12.62263800611219
GLOBALSTAR M092         
1 38043U 11080D   25071.17885610 -.00000097  00000+0  36704-4 0  9999
2 38043  52.0103  31.1784 0000304  87.1960 285.7404 12.62273156609913
GLOBALSTAR M090         
1 38044U 11080E   25070.91520970 -.00000064  00000+0  22389-3 0  9993
2 38044  51.9887 295.5498 0000840  69.6313 303.3023 12.62267949611371
GLOBALSTAR M086         
1 38045U 11080F   25070.94178398 -.00000065  00000+0  21594-3 0  9998
2 38045  51.9899 296.0122 0001663  94.3672 279.8027 12.62267837611289
GLOBALSTAR M097         
1 39072U 13005A   25070.64856208 -.00000117  00000+0 -76139-4 0  9993
2 39072  52.0032 211.3500 0000988  94.1523 265.9457 12.62270882558493
GLOBALSTAR M093         
1 39073U 13005B   25071.09681350 -.00000115  00000+0 -61282-4 0  9999
2 39073  51.9799 203.4406 0000921  95.5116 264.5856 12.62262428558629
